NOAA 15                 
1 25338U 98030A   20220.51580328  .00000053  00000-0  40702-4 0  9994
2 25338  98.7145 245.3002 0011529 112.3654 247.8748 14.25983907156250
DMSP 5D-3 F15 (USA 147) 
1 25991U 99067A   20220.53005962 -.00000112  00000-0 -33287-4 0  9996
2 25991  98.9733 192.2978 0009323 321.5451 190.8217 14.16476815 67658
METEOSAT-8 (MSG-1)      
1 27509U 02040B   20220.67284137  .00000128  00000-0  00000+0 0  9993
2 27509   6.8115  53.8799 0001600  86.3814  99.9869  1.00269486 65797
DMSP 5D-3 F16 (USA 172) 
1 28054U 03048A   20220.55797743 -.00000107  00000-0 -32901-4 0  9996
2 28054  98.9153 199.4502 0008600  78.9982  30.1853 14.13649496867001
NOAA 18                 
1 28654U 05018A   20220.58890331  .00000080  00000-0  67885-4 0  9998
2 28654  99.0401 277.4860 0015344  88.0941 272.1987 14.12530383784130
METEOSAT-9 (MSG-2)      
1 28912U 05049B   20220.26724226  .00000007  00000-0  00000-0 0  9994
2 28912   4.5292  69.9451 0002305  25.9454 319.8914  1.00275438 53574
FORMOSAT-3 FM6          
1 29047U 06011A   20220.51754411  .00000048  00000-0  35134-4 0  9996
2 29047  71.9796   5.7656 0051216 332.3456  27.4957 14.28745829748613
FORMOSAT-3 FM1          
1 29048U 06011B   20220.53746725  .00000089  00000-0  51557-4 0  9990
2 29048  71.9659 276.5774 0045652 291.1495  68.4765 14.28709713751105
FORMOSAT-3 FM5          
1 29049U 06011C   20220.04554092  .00000027  00000-0  26854-4 0  9995
2 29049  72.0204  89.5181 0036170 317.2229  42.6094 14.28791578746820
FORMOSAT-3 FM3          
1 29050U 06011D   20220.42996170  .00000097  00000-0  30795-4 0  9992
2 29050  72.0139 229.6168 0051501 233.7065 125.9325 14.58935338763767
FORMOSAT-3 FM4          
1 29051U 06011E   20220.74460836  .00000031  00000-0  27990-4 0  9994
2 29051  72.0069 350.0471 0068631 197.5143 162.3628 14.28822402749514
FORMOSAT-3 FM2          
1 29052U 06011F   20220.04043305  .00000039  00000-0  31546-4 0  9996
2 29052  72.0342  65.8416 0041698 278.1336  81.5072 14.28928503747740
GOES 13                 
1 29155U 06018A   20220.57618924  .00000030  00000-0  00000-0 0  9998
2 29155   0.0718 208.3824 0007514 346.4189  30.4726  1.00269163 21912
METOP-A                 
1 29499U 06044A   20220.55781753 -.00000009  00000-0  14978-4 0  9997
2 29499  98.5184 265.5857 0001792 100.8389  61.9466 14.21503417715964
DMSP 5D-3 F17 (USA 191) 
1 29522U 06050A   20220.57430515 -.00000050  00000-0 -31806-5 0  9997
2 29522  98.8010 236.2026 0010570  37.5374 322.6535 14.14014844709936
FENGYUN 3A              
1 32958U 08026A   20220.55771791 -.00000011  00000-0  14342-4 0  9992
2 32958  98.4091 203.6563 0008524 181.2591 178.8565 14.18630427631962
FENGYUN 2E              
1 33463U 08066A   20220.68191390 -.00000213  00000-0  00000+0 0  9998
2 33463   4.4453  68.3947 0002779 301.0311 279.3612  1.00273613 42630
NOAA 19                 
1 33591U 09005A   20220.59631403  .00000038  00000-0  46057-4 0  9999
2 33591  99.1956 227.2747 0013007 294.5155  65.4659 14.12425616592356
GOES 14                 
1 35491U 09033A   20220.56797282 -.00000101  00000-0  00000-0 0  9992
2 35491   0.4398  97.7147 0009969 115.2411 203.5424  1.00270803 40668
METEOR-M 1              
1 35865U 09049A   20220.59323394  .00000004  00000-0  20684-4 0  9991
2 35865  98.4412 205.4678 0003314  57.9782 302.1718 14.22245273565187
DMSP 5D-3 F18 (USA 210) 
1 35951U 09057A   20220.50937242  .00000040  00000-0  43838-4 0  9996
2 35951  98.6470 208.6892 0010186 218.0698 141.9757 14.13290745330897
GOES 15                 
1 36411U 10008A   20220.40865365  .00000044  00000-0  00000+0 0  9994
2 36411   0.0246 166.8743 0002315 292.4358 235.8908  1.00279518 38209
COMS 1                  
1 36744U 10032A   20220.52827046 -.00000354  00000-0  00000-0 0  9993
2 36744   0.0184  84.7078 0000706  54.1022 136.0000  1.00269360 29637
FENGYUN 3B              
1 37214U 10059A   20220.79097016 -.00000011  00000-0  17809-4 0  9999
2 37214  99.0485 203.3265 0017945 120.2454 240.0501 14.15953827504948
SUOMI NPP               
1 37849U 11061A   20220.77964378  .00000004  00000-0  22469-4 0  9998
2 37849  98.7375 158.0187 0001576  90.4534 299.4751 14.19540887454902
FENGYUN 2F              
1 38049U 12002A   20220.47158803 -.00000368  00000-0  00000-0 0  9999
2 38049   2.1784  83.4630 0000952  49.3231 105.3821  1.00282255 31436
METEOSAT-10 (MSG-3)     
1 38552U 12035B   20220.21021664  .00000052  00000-0  00000-0 0  9999
2 38552   1.3684 342.7392 0001828 135.5320 283.0694  1.00268848 29432
METOP-B                 
1 38771U 12049A   20220.74029229 -.00000011  00000-0  14875-4 0  9995
2 38771  98.6880 279.2555 0001085 150.5198 318.1899 14.21501689409307
FENGYUN 3C              
1 39260U 13052A   20220.72022751 -.00000027  00000-0  72702-5 0  9996
2 39260  98.5463 269.0252 0012212  71.3464 288.9036 14.15842811355875
METEOR-M 2              
1 40069U 14037A   20220.81574273 -.00000032  00000-0  46839-5 0  9998
2 40069  98.4993 256.4008 0006582 126.1636 234.0141 14.20674132315503
HIMAWARI-8              
1 40267U 14060A   20220.52271632 -.00000285  00000-0  00000-0 0  9990
2 40267   0.0256 137.5497 0000993  28.2398 119.5463  1.00271603 21308
FENGYUN 2G              
1 40367U 14090A   20220.46914543 -.00000312  00000-0  00000-0 0  9993
2 40367   2.2007  93.9583 0001396 337.3617 153.5602  1.00269246 20586
METEOSAT-11 (MSG-4)     
1 40732U 15034A   20220.73643638 -.00000010  00000-0  00000+0 0  9996
2 40732   0.7206 272.3201 0003382 226.8057  82.8651  1.00275443 18584
ELEKTRO-L 2             
1 41105U 15074A   20220.86855060 -.00000126  00000-0  00000+0 0  9991
2 41105   1.3202  96.6554 0074803  88.3462  92.3373  0.99186552 17065
HIMAWARI-9              
1 41836U 16064A   20220.52271632 -.00000284  00000-0  00000-0 0  9998
2 41836   0.0119 286.2635 0001020 232.0333 127.1127  1.00274118 13735
GOES 16                 
1 41866U 16071A   20220.50604623 -.00000257  00000-0  00000-0 0  9997
2 41866   0.0478 126.6120 0000891  52.1175 244.7004  1.00270844 13655
FENGYUN 4A              
1 41882U 16077A   20220.51091243 -.00000340  00000-0  00000-0 0  9993
2 41882   0.0686  77.7796 0004313  59.8517 107.4679  1.00271383 13524
CYGFM05                 
1 41884U 16078A   20220.04014460  .00000317  00000-0  18501-4 0  9992
2 41884  34.9564 105.7196 0015313 140.3004 219.8831 15.14657308201782
CYGFM04                 
1 41885U 16078B   20220.05922464  .00000353  00000-0  20085-4 0  9996
2 41885  34.9497  98.5234 0013831 151.8146 208.3316 15.15168248201857
CYGFM02                 
1 41886U 16078C   20220.05205597  .00000342  00000-0  19545-4 0  9995
2 41886  34.9588 100.3342 0014533 147.4064 212.7547 15.15169097201848
CYGFM01                 
1 41887U 16078D   20220.01504493  .00000328  00000-0  19174-4 0  9991
2 41887  34.9530 107.0903 0015807 140.6499 219.5363 15.14469770201767
CYGFM08                 
1 41888U 16078E   20220.05882978  .00000341  00000-0  19615-4 0  9998
2 41888  34.9501 102.3886 0015071 148.5558 211.6057 15.14885535201809
CYGFM06                 
1 41889U 16078F   20220.03116164  .00000332  00000-0  19005-4 0  9997
2 41889  34.9583  99.1550 0013485 147.3564 212.7983 15.15163170201841
CYGFM07                 
1 41890U 16078G   20220.00959000  .00000313  00000-0  17996-4 0  9996
2 41890  34.9522  98.3588 0013291 150.5838 209.5624 15.15161602201847
CYGFM03                 
1 41891U 16078H   20220.72996082  .00000306  00000-0  17670-4 0  9998
2 41891  34.9553  94.1409 0012827 156.0143 204.1168 15.15157637201951
FENGYUN 3D              
1 43010U 17072A   20220.74389887 -.00000043  00000-0  42690-6 0  9990
2 43010  98.7522 159.4951 0000770 346.5979  13.5182 14.19745937141471
NOAA 20                 
1 43013U 17073A   20220.52704991 -.00000010  00000-0  15835-4 0  9990
2 43013  98.7188 157.6872 0001076 105.0935 255.0360 14.19558817140901
GOES 17                 
1 43226U 18022A   20220.70904429  .00000088  00000-0  00000+0 0  9996
2 43226   0.0187 229.8812 0000469 315.7298 249.1425  1.00272861  8980
FENGYUN 2H              
1 43491U 18050A   20219.98869108 -.00000134  00000-0  00000+0 0  9996
2 43491   0.5407 271.9776 0003797 228.5770 250.1653  1.00266373  8058
METOP-C                 
1 43689U 18087A   20220.75647385 -.00000012  00000-0  14448-4 0  9994
2 43689  98.6943 279.5945 0002231 165.7983 194.3257 14.21500034 90885
GEO-KOMPSAT-2A          
1 43823U 18100A   20220.75049390 -.00000353  00000-0  00000+0 0  9994
2 43823   0.0370 246.6902 0002311 232.6194 235.8177  1.00272755  6216
IOD-1 GEMS              
1 44385U 98067QK  20220.78216293  .00016645  00000-0  19577-3 0  9992
2 44385  51.6394  74.0585 0002497 150.7082 209.4052 15.61562915 62504
METEOR-M2 2             
1 44387U 19038A   20220.81205400 -.00000033  00000-0  45609-5 0  9999
2 44387  98.6231 179.8456 0002545  85.2021 274.9448 14.23680221 56841
